start=new Date('2022-02-24T00:00:00.000Z').valueOf();
sats=[{"APOAPSIS":"548.290","TLE_LINE2":"2 45093  53.0559  28.4169 0001564  59.5698 300.5446 15.06402120114692","RCS_SIZE":"LARGE","SITE":"AFETR","RA_OF_ASC_NODE":"28.4169","MEAN_MOTION":"15.06402120","TLE_LINE1":"1 45093U 20006BB  22054.63073115  .00001387  00000-0  11196-3 0  9998","MEAN_MOTION_DDOT":"0.0000000000000","MEAN_MOTION_DOT":"0.00001387","EPOCH":"2022-02-23T15:08:15.171360","PERIOD":"95.592","BSTAR":"0.00011196000000","SEMIMAJOR_AXIS":"6925.342","ARG_OF_PERICENTER":"59.5698","CLASSIFICATION_TYPE":"U","REV_AT_EPOCH":"11469","PERIAPSIS":"546.124","NORAD_CAT_ID":"45093","OBJECT_NAME":"STARLINK-1142","OBJECT_TYPE":"PAYLOAD","COUNTRY_CODE":"US","EPHEMERIS_TYPE":"0","DECAY_DATE":null,"MEAN_ANOMALY":"300.5446","REF_FRAME":"TEME","CENTER_NAME":"EARTH","GP_ID":"196783086","ELEMENT_SET_NO":"999","MEAN_ELEMENT_THEORY":"SGP4","FILE":"3317219","INCLINATION":"53.0559","LAUNCH_DATE":"2020-01-29","ECCENTRICITY":"0.00015640","TIME_SYSTEM":"UTC","OBJECT_ID":"2020-006BB"},{"OBJECT_NAME":"STARLINK-1146","NORAD_CAT_ID":"45094","DECAY_DATE":null,"COUNTRY_CODE":"US","OBJECT_TYPE":"PAYLOAD","EPHEMERIS_TYPE":"0","MEAN_ANOMALY":"291.1615","CENTER_NAME":"EARTH","REF_FRAME":"TEME","ELEMENT_SET_NO":"999","GP_ID":"196783838","MEAN_ELEMENT_THEORY":"SGP4","LAUNCH_DATE":"2020-01-29","INCLINATION":"53.0567","FILE":"3317219","TIME_SYSTEM":"UTC","OBJECT_ID":"2020-006BC","ECCENTRICITY":"0.00013590","RCS_SIZE":"LARGE","SITE":"AFETR","APOAPSIS":"548.177","TLE_LINE2":"2 45094  53.0567  28.3508 0001359  68.9520 291.1615 15.06392646114704","MEAN_MOTION":"15.06392646","RA_OF_ASC_NODE":"28.3508","MEAN_MOTION_DDOT":"0.0000000000000","TLE_LINE1":"1 45094U 20006BC  22054.64548332  .00001434  00000-0  11519-3 0  9990","MEAN_MOTION_DOT":"0.00001434","EPOCH":"2022-02-23T15:29:29.758848","BSTAR":"0.00011519000000","SEMIMAJOR_AXIS":"6925.371","PERIOD":"95.593","REV_AT_EPOCH":"11470","CLASSIFICATION_TYPE":"U","ARG_OF_PERICENTER":"68.9520","PERIAPSIS":"546.295"},{"DECAY_DATE":null,"COUNTRY_CODE":"US","OBJECT_TYPE":"PAYLOAD","EPHEMERIS_TYPE":"0","OBJECT_NAME":"STARLINK-1147","NORAD_CAT_ID":"45095","CENTER_NAME":"EARTH","REF_FRAME":"TEME","MEAN_ANOMALY":"298.8174","LAUNCH_DATE":"2020-01-29","INCLINATION":"53.0569","FILE":"3317219","GP_ID":"196784589","ELEMENT_SET_NO":"999","MEAN_ELEMENT_THEORY":"SGP4","TIME_SYSTEM":"UTC","OBJECT_ID":"2020-006BD","ECCENTRICITY":"0.00017410","MEAN_MOTION":"15.06393091","RA_OF_ASC_NODE":"28.3450","RCS_SIZE":"LARGE","SITE":"AFETR","APOAPSIS":"548.440","TLE_LINE2":"2 45095  53.0569  28.3450 0001741  61.2990 298.8174 15.06393091114704","EPOCH":"2022-02-23T15:34:48.345024","MEAN_MOTION_DOT":"-0.00000733","MEAN_MOTION_DDOT":"0.0000000000000","TLE_LINE1":"1 45095U 20006BD  22054.64917066 -.00000733  00000-0 -30281-4 0  9996","BSTAR":"-0.00003028100000","SEMIMAJOR_AXIS":"6925.370","PERIOD":"95.593","PERIAPSIS":"546.029","REV_AT_EPOCH":"11470","ARG_OF_PERICENTER":"61.2990","CLASSIFICATION_TYPE":"U"},{"LAUNCH_DATE":"2020-01-29","FILE":"3317219","INCLINATION":"53.0568","MEAN_ELEMENT_THEORY":"SGP4","ELEMENT_SET_NO":"999","GP_ID":"196783337","OBJECT_ID":"2020-006BE","TIME_SYSTEM":"UTC","ECCENTRICITY":"0.00015980","DECAY_DATE":null,"COUNTRY_CODE":"US","EPHEMERIS_TYPE":"0","OBJECT_TYPE":"PAYLOAD","OBJECT_NAME":"STARLINK-1152","NORAD_CAT_ID":"45096","CENTER_NAME":"EARTH","REF_FRAME":"TEME","MEAN_ANOMALY":"299.3009","SEMIMAJOR_AXIS":"6925.364","BSTAR":"0.00011489000000","PERIOD":"95.592","PERIAPSIS":"546.123","REV_AT_EPOCH":"11469","CLASSIFICATION_TYPE":"U","ARG_OF_PERICENTER":"60.8139","MEAN_MOTION":"15.06394809","RA_OF_ASC_NODE":"28.3806","SITE":"AFETR","RCS_SIZE":"LARGE","TLE_LINE2":"2 45096  53.0568  28.3806 0001598  60.8139 299.3009 15.06394809114698","APOAPSIS":"548.336","MEAN_MOTION_DOT":"0.00001430","EPOCH":"2022-02-23T15:24:11.824128","MEAN_MOTION_DDOT":"0.0000000000000","TLE_LINE1":"1 45096U 20006BE  22054.64180352  .00001430  00000-0  11489-3 0  9998"},{"FILE":"3317219","INCLINATION":"53.0564","LAUNCH_DATE":"2020-01-29","MEAN_ELEMENT_THEORY":"SGP4","ELEMENT_SET_NO":"999","GP_ID":"196783587","ECCENTRICITY":"0.00015430","OBJECT_ID":"2020-006BG","TIME_SYSTEM":"UTC","COUNTRY_CODE":"US","OBJECT_TYPE":"PAYLOAD","EPHEMERIS_TYPE":"0","DECAY_DATE":null,"NORAD_CAT_ID":"45098","OBJECT_NAME":"STARLINK-1184","REF_FRAME":"TEME","CENTER_NAME":"EARTH","MEAN_ANOMALY":"287.2636","PERIOD":"95.592","SEMIMAJOR_AXIS":"6925.365","BSTAR":"0.00000853800000","PERIAPSIS":"546.162","CLASSIFICATION_TYPE":"U","ARG_OF_PERICENTER":"72.8521","REV_AT_EPOCH":"11469","RA_OF_ASC_NODE":"28.4605","MEAN_MOTION":"15.06394531","TLE_LINE2":"2 45098  53.0564  28.4605 0001543  72.8521 287.2636 15.06394531114696","APOAPSIS":"548.299","SITE":"AFETR","RCS_SIZE":"LARGE","EPOCH":"2022-02-23T14:57:39.256992","MEAN_MOTION_DOT":"-0.00000154","TLE_LINE1":"1 45098U 20006BG  22054.62337103 -.00000154  00000-0  85380-5 0  9992","MEAN_MOTION_DDOT":"0.0000000000000"},{"APOAPSIS":"548.413","TLE_LINE2":"2 45099  53.0572  29.4931 0001706  53.6351 306.4795 15.06394173114667","RCS_SIZE":"LARGE","SITE":"AFETR","RA_OF_ASC_NODE":"29.4931","MEAN_MOTION":"15.06394173","TLE_LINE1":"1 45099U 20006BH  22054.39115905  .00001347  00000-0  10932-3 0  9994","MEAN_MOTION_DDOT":"0.0000000000000","EPOCH":"2022-02-23T09:23:16.141920","MEAN_MOTION_DOT":"0.00001347","PERIOD":"95.593","BSTAR":"0.00010932000000","SEMIMAJOR_AXIS":"6925.366","CLASSIFICATION_TYPE":"U","ARG_OF_PERICENTER":"53.6351","REV_AT_EPOCH":"11466","PERIAPSIS":"546.050","NORAD_CAT_ID":"45099","OBJECT_NAME":"STARLINK-1186","COUNTRY_CODE":"US","OBJECT_TYPE":"PAYLOAD","EPHEMERIS_TYPE":"0","DECAY_DATE":null,"MEAN_ANOMALY":"306.4795","REF_FRAME":"TEME","CENTER_NAME":"EARTH","GP_ID":"196739845","ELEMENT_SET_NO":"999","MEAN_ELEMENT_THEORY":"SGP4","INCLINATION":"53.0572","FILE":"3316306","LAUNCH_DATE":"2020-01-29","ECCENTRICITY":"0.00017060","TIME_SYSTEM":"UTC","OBJECT_ID":"2020-006BH"},{"TLE_LINE2":"2 45100  53.0570  28.4548 0001607  60.6312 299.4837 15.06398617114694","APOAPSIS":"548.331","SITE":"AFETR","RCS_SIZE":"LARGE","RA_OF_ASC_NODE":"28.4548","MEAN_MOTION":"15.06398617","TLE_LINE1":"1 45100U 20006BJ  22054.61967992  .00000696  00000-0  65591-4 0  9991","MEAN_MOTION_DDOT":"0.0000000000000","MEAN_MOTION_DOT":"0.00000696","EPOCH":"2022-02-23T14:52:20.345088","PERIOD":"95.592","SEMIMAJOR_AXIS":"6925.353","BSTAR":"0.00006559100000","ARG_OF_PERICENTER":"60.6312","CLASSIFICATION_TYPE":"U","REV_AT_EPOCH":"11469","PERIAPSIS":"546.105","NORAD_CAT_ID":"45100","OBJECT_NAME":"STARLINK-1193","COUNTRY_CODE":"US","OBJECT_TYPE":"PAYLOAD","EPHEMERIS_TYPE":"0","DECAY_DATE":null,"MEAN_ANOMALY":"299.4837","REF_FRAME":"TEME","CENTER_NAME":"EARTH","MEAN_ELEMENT_THEORY":"SGP4","GP_ID":"196784089","ELEMENT_SET_NO":"999","INCLINATION":"53.0570","FILE":"3317219","LAUNCH_DATE":"2020-01-29","ECCENTRICITY":"0.00016070","OBJECT_ID":"2020-006BJ","TIME_SYSTEM":"UTC"},{"REF_FRAME":"TEME","CENTER_NAME":"EARTH","MEAN_ANOMALY":"297.9300","COUNTRY_CODE":"US","OBJECT_TYPE":"PAYLOAD","EPHEMERIS_TYPE":"0","DECAY_DATE":null,"NORAD_CAT_ID":"45101","OBJECT_NAME":"STARLINK-1194","ECCENTRICITY":"0.00016010","TIME_SYSTEM":"UTC","OBJECT_ID":"2020-006BK","INCLINATION":"53.0555","FILE":"3317219","LAUNCH_DATE":"2020-01-29","ELEMENT_SET_NO":"999","GP_ID":"196782837","MEAN_ELEMENT_THEORY":"SGP4","EPOCH":"2022-02-23T14:47:02.267808","MEAN_MOTION_DOT":"0.00002014","TLE_LINE1":"1 45101U 20006BK  22054.61599847  .00002014  00000-0  15406-3 0  9997","MEAN_MOTION_DDOT":"0.0000000000000","RA_OF_ASC_NODE":"28.4691","MEAN_MOTION":"15.06396036","APOAPSIS":"548.334","TLE_LINE2":"2 45101  53.0555  28.4691 0001601  62.1851 297.9300 15.06396036114697","RCS_SIZE":"LARGE","SITE":"AFETR","PERIAPSIS":"546.117","ARG_OF_PERICENTER":"62.1851","CLASSIFICATION_TYPE":"U","REV_AT_EPOCH":"11469","PERIOD":"95.592","BSTAR":"0.00015406000000","SEMIMAJOR_AXIS":"6925.361"},{"OBJECT_ID":"2020-006BL","TIME_SYSTEM":"UTC","ECCENTRICITY":"0.00016470","MEAN_ELEMENT_THEORY":"SGP4","ELEMENT_SET_NO":"999","GP_ID":"196783087","LAUNCH_DATE":"2020-01-29","INCLINATION":"53.0543","FILE":"3317219","MEAN_ANOMALY":"297.6775","CENTER_NAME":"EARTH","REF_FRAME":"TEME","OBJECT_NAME":"STARLINK-1195","NORAD_CAT_ID":"45102","DECAY_DATE":null,"EPHEMERIS_TYPE":"0","COUNTRY_CODE":"US","OBJECT_TYPE":"PAYLOAD","REV_AT_EPOCH":"11469","ARG_OF_PERICENTER":"62.4381","CLASSIFICATION_TYPE":"U","PERIAPSIS":"546.083","SEMIMAJOR_AXIS":"6925.359","BSTAR":"-0.00001315600000","PERIOD":"95.592","MEAN_MOTION_DDOT":"0.0000000000000","TLE_LINE1":"1 45102U 20006BL  22054.63811717 -.00000477  00000-0 -13156-4 0  9997","MEAN_MOTION_DOT":"-0.00000477","EPOCH":"2022-02-23T15:18:53.323488","SITE":"AFETR","RCS_SIZE":"LARGE","TLE_LINE2":"2 45102  53.0543  28.3968 0001647  62.4381 297.6775 15.06396726114691","APOAPSIS":"548.364","MEAN_MOTION":"15.06396726","RA_OF_ASC_NODE":"28.3968"},{"OBJECT_NAME":"STARLINK-1196","NORAD_CAT_ID":"45103","DECAY_DATE":null,"COUNTRY_CODE":"US","OBJECT_TYPE":"PAYLOAD","EPHEMERIS_TYPE":"0","MEAN_ANOMALY":"298.0018","CENTER_NAME":"EARTH","REF_FRAME":"TEME","GP_ID":"196783839","ELEMENT_SET_NO":"999","MEAN_ELEMENT_THEORY":"SGP4","LAUNCH_DATE":"2020-01-29","INCLINATION":"53.0520","FILE":"3317219","TIME_SYSTEM":"UTC","OBJECT_ID":"2020-006BM","ECCENTRICITY":"0.00017130","RCS_SIZE":"LARGE","SITE":"AFETR","APOAPSIS":"548.363","TLE_LINE2":"2 45103  53.0520  27.7133 0001713  62.1144 298.0018 15.06412029114726","MEAN_MOTION":"15.06412029","RA_OF_ASC_NODE":"27.7133","MEAN_MOTION_DDOT":"0.0000000000000","TLE_LINE1":"1 45103U 20006BM  22054.80302686  .00004565  00000-0  32507-3 0  9997","MEAN_MOTION_DOT":"0.00004565","EPOCH":"2022-02-23T19:16:21.520704","BSTAR":"0.00032507000000","SEMIMAJOR_AXIS":"6925.312","PERIOD":"95.591","REV_AT_EPOCH":"11472","CLASSIFICATION_TYPE":"U","ARG_OF_PERICENTER":"62.1144","PERIAPSIS":"545.990"}];
